#aV2020  2 16  0  0  0.00000000     288 DD+AD WGS84 FIT  NGA
## 2093      0.00000000   300.00000000 58895 0.0000000000000
+   32     1  2  3  4  5  6  7  8  9 10 11 12 13 14 15 16 17
+         18 19 20 21 22 23 24 25 26 27 28 29 30 31 32  0  0
+          0  0  0  0  0  0  0  0  0  0  0  0  0  0  0  0  0
+          0  0  0  0  0  0  0  0  0  0  0  0  0  0  0  0  0
+          0  0  0  0  0  0  0  0  0  0  0  0  0  0  0  0  0
++         2  2  2  2  2  2  2  2  2  2  2  2  2  2  2  2  2
++         2  2  2  2  2  2  2  2  2  2  2  2  2  2  2  0  0
++         0  0  0  0  0  0  0  0  0  0  0  0  0  0  0  0  0
++         0  0  0  0  0  0  0  0  0  0  0  0  0  0  0  0  0
++         0  0  0  0  0  0  0  0  0  0  0  0  0  0  0  0  0
%c cc cc ccc ccc cccc cccc cccc cccc ccccc ccccc ccccc ccccc
%c cc cc ccc ccc cccc cccc cccc cccc ccccc ccccc ccccc ccccc
%f  0.0000000  0.000000000  0.00000000000  0.000000000000000
%f  0.0000000  0.000000000  0.00000000000  0.000000000000000
%i    0    0    0    0      0      0      0      0         0
%i    0    0    0    0      0      0      0      0         0
/*      NGA, ST. LOUIS,MO.                                  
/*   EPHEMERIS COMPUTED FROM 2 DAYS OF DATA                 
/*   EPOCHA v5 SMOOTHER                                     
/*   G1762 IERS2010 SATAF SATAPC                            
*  2020  2 16 15 35  0.00000000
P  1 -21787.921330 -14017.080751   6387.274980   -296.934775                    
V  1  -4839.253184  -7003.558835 -30561.171110     -0.122212                    
P  2   9698.855243  20531.501508  14486.716756   -405.882322                    
V  2 -14819.053864  -9110.328288  23819.524210     -0.069261                    
P  3 -14011.818363  -6187.252322  21648.561205    -95.981098                    
V  3   5993.862115 -26944.815982  -3719.469598     -0.088875                    
P  4 -23357.099656  -2276.557604  12469.204069    -49.708371                    
V  4  14533.690270  -6651.947772  25999.814232     -0.053708                    
P  5   3556.976509  23925.830079 -10875.618544     -7.691551                    
V  5  -5179.006240  12983.929345  27396.450549     -0.005763                    
P  6  -1846.219748  16857.257517  20488.016024   -209.921010                    
V  6 -19826.961606 -16607.100091  11946.718282     -0.093203                    
P  7 -18739.484716    798.960842 -18698.827138   -215.845777                    
V  7 -16911.305711 -17372.272057  15488.567396     -0.084354                    
P  8 -15565.291764  -8889.543405 -19650.962244    -23.964191                    
V  8  23235.722219  -9038.117458 -14054.314993     -0.012962                    
P  9 -25572.803615   6535.488883   2998.728984   -156.948069                    
V  9   2679.895000  -4132.229333  31259.256088     -0.084820                    
P 10  11521.550808 -21604.813448  -9915.679921   -247.214686                    
V 10    -75.063983  13035.408250 -28490.944607     -0.130314                    
P 11 -21385.457362 -13026.011693  -8842.029645   -359.457563                    
V 11  11469.613922  -1085.918487 -27981.598815      0.107902                    
P 12  11880.809756  10271.341593  21221.221792    150.596230                    
V 12  -7996.755782  26204.092404  -7952.889265     -0.041690                    
P 13   6975.903208  13862.346422 -21686.947503    -12.396391                    
V 13 -26655.308484   5489.089581  -5014.688377      0.027363                    
P 14   8113.008204 -16146.127072  19735.359276    -32.071312                    
V 14  24024.105935  -4484.892379 -13960.530885      0.024114                    
P 15  17249.977529   7918.745362 -19026.128300   -251.151929                    
V 15 -20881.750349  10919.247794 -14241.618258      0.026230                    
P 16   -778.440901 -23799.048280 -11478.487865   -125.149345                    
V 16   6276.789976 -13132.181794  27731.273114     -0.041426                    
P 17 -17973.785254  14246.024781  13774.078666    217.068715                    
V 17 -16593.840079   2811.001150 -25398.071111      0.064149                    
P 18 -19603.137764 -17894.972539  -2352.237494      2.896208                    
V 18   3615.218119   -708.984087 -31436.709204      0.019497                    
P 19 -11419.336200  15037.755357  18387.754969   -197.864948                    
V 19 -23621.158017   3859.279254 -17542.212611      0.051519                    
P 20  14546.809132 -12691.638486 -18239.715443    527.866041                    
V 20    199.126377  23242.373208 -16298.144303      0.000071                    
P 21  17096.596896  -3856.823931 -19090.586232    -40.230668                    
V 21  19472.153684  17420.769590  13615.583496      0.053794                    
P 22 -12161.560229 -14791.612617  18670.638685   -784.651590                    
V 22   4659.737774 -22921.916496 -15189.604529     -0.006268                    
P 23 -24042.327223   -773.680441  12027.759701   -135.917521                    
V 23  12984.080757  -7145.708082  25903.097762      0.025995                    
P 24  22346.628877  14126.185714   3931.666431     -9.152212                    
V 24   2043.847963   5764.108210 -30450.136344     -0.005874                    
P 25  15548.772969  -3692.420270  20934.397232    -12.919207                    
V 25  -4829.979623  26734.806693   8479.210766      0.013987                    
P 26   3604.495334 -26152.052654  -1457.556521    149.586623                    
V 26   3676.506416  -1206.076852  31544.321155      0.077325                    
P 27  -3998.081452 -14345.085958 -22107.529709   -212.861869                    
V 27  26409.924076  -8460.291844   1039.468835     -0.110280                    
P 28 -12297.398158  22098.673020  -7751.022832    738.830453                    
V 28   1117.350392 -10746.663389 -29994.037509     -0.025336                    
P 29  25976.540497  -3823.116514   4033.882163    -34.540091                    
V 29  -4505.774424   3180.899123  31748.046831     -0.094065                    
P 30 -10605.503102  11549.197147 -21406.374110   -154.600346                    
V 30 -19767.001178 -18885.557966   -594.606102     -0.089635                    
P 31    144.977848 -18311.980924  19033.290504    -23.604744                    
V 31  18844.478229  15606.630772  15296.194192     -0.024980                    
P 32  16704.392969 -15605.078076  13471.265826    213.883335                    
V 32  16935.328215  -3151.885159 -24910.722505      0.098078                    
EOF
